{"type": "FeatureCollection", "features": [ {"type": "Feature", "properties": {"norad_id": 32350, "name": "FENGYUN 1C DEB", "group": "fengyun-1c-debris", "lat": 16.232150961565573, "lon": 37.128487014250254, "alt_km": 755.971761767617, "timestamp": "2025-12-20T22:39:10.911166+00:00", "meta": {"OBJECT_NAME": "FENGYUN 1C DEB", "OBJECT_ID": "1999-025CYT", "EPOCH": "2025-12-14T09:31:41.023776", "MEAN_MOTION": 14.52585967, "ECCENTRICITY": 0.02665518, "INCLINATION": 98.2297, "RA_OF_ASC_NODE": 33.1134, "ARG_OF_PERICENTER": 293.5046, "MEAN_ANOMALY": 63.8346, "EPHEMERIS_TYPE": 0, "CLASSIFICATION_TYPE": "U", "NORAD_CAT_ID": 32350, "ELEMENT_SET_NO": 999, "REV_AT_EPOCH": 97551, "BSTAR": 0.00074129025, "MEAN_MOTION_DOT": 4.788e-05, "MEAN_MOTION_DDOT": 0}, "tle": {"line1": "1 32350U 99025CYT 25348.39700259  .00004788  00000+0  74129-3 0  9997", "line2": "2 32350  98.2297  33.1134 0266551 293.5046  63.8346 14.52585967975510"}}, "geometry": {"type": "Point", "coordinates": [37.128487014250254, 16.232150961565573]}}, {"type": "Feature", "properties": {"norad_id": 32352, "name": "FENGYUN 1C DEB", "group": "fengyun-1c-debris", "lat": 33.40417337883087, "lon": 101.02711071439303, "alt_km": 664.3861731121724, "timestamp": "2025-12-20T22:39:10.911175+00:00", "meta": {"OBJECT_NAME": "FENGYUN 1C DEB", "OBJECT_ID": "1999-025CYV", "EPOCH": "2025-12-19T12:39:41.171040", "MEAN_MOTION": 14.41429626, "ECCENTRICITY": 0.0122359, "INCLINATION": 98.7786, "RA_OF_ASC_NODE": 273.7231, "ARG_OF_PERICENTER": 150.9024, "MEAN_ANOMALY": 209.9056, "EPHEMERIS_TYPE": 0, "CLASSIFICATION_TYPE": "U", "NORAD_CAT_ID": 32352, "ELEMENT_SET_NO": 999, "REV_AT_EPOCH": 65367, "BSTAR": 0.0001377, "MEAN_MOTION_DOT": 4.38e-06, "MEAN_MOTION_DDOT": 0}, "tle": {"line1": "1 32352U 99025CYV 25353.52755985  .00000438  00000+0  13770-3 0  9999", "line2": "2 32352  98.7786 273.7231 0122359 150.9024 209.9056 14.41429626653677"}}, "geometry": {"type": "Point", "coordinates": [101.02711071439303, 33.40417337883087]}}, {"type": "Feature", "properties": {"norad_id": 32353, "name": "FENGYUN 1C DEB", "group": "fengyun-1c-debris", "lat": -67.8489682562947, "lon": -166.03408375363983, "alt_km": 923.5711945419434, "timestamp": "2025-12-20T22:39:10.911184+00:00", "meta": {"OBJECT_NAME": "FENGYUN 1C DEB", "OBJECT_ID": "1999-025CYW", "EPOCH": "2025-12-14T18:10:27.215616", "MEAN_MOTION": 14.03836024, "ECCENTRICITY": 0.01250888, "INCLINATION": 98.9217, "RA_OF_ASC_NODE": 165.1959, "ARG_OF_PERICENTER": 193.6238, "MEAN_ANOMALY": 166.1542, "EPHEMERIS_TYPE": 0, "CLASSIFICATION_TYPE": "U", "NORAD_CAT_ID": 32353, "ELEMENT_SET_NO": 999, "REV_AT_EPOCH": 63222, "BSTAR": 0.0024513199, "MEAN_MOTION_DOT": 4.1e-05, "MEAN_MOTION_DDOT": 0}, "tle": {"line1": "1 32353U 99025CYW 25348.75725944  .00004100  00000+0  24513-2 0  9997", "line2": "2 32353  98.9217 165.1959 0125088 193.6238 166.1542 14.03836024632227"}}, "geometry": {"type": "Point", "coordinates": [-166.03408375363983, -67.8489682562947]}}, {"type": "Feature", "properties": {"norad_id": 32355, "name": "FENGYUN 1C DEB", "group": "fengyun-1c-debris", "lat": 70.34406056995935, "lon": 137.73232843754104, "alt_km": 404.4552634755855, "timestamp": "2025-12-20T22:39:10.911193+00:00", "meta": {"OBJECT_NAME": "FENGYUN 1C DEB", "OBJECT_ID": "1999-025CYY", "EPOCH": "2025-12-20T14:58:00.151968", "MEAN_MOTION": 15.46351214, "ECCENTRICITY": 0.00283213, "INCLINATION": 100.3409, "RA_OF_ASC_NODE": 286.5316, "ARG_OF_PERICENTER": 70.0985, "MEAN_ANOMALY": 54.5123, "EPHEMERIS_TYPE": 0, "CLASSIFICATION_TYPE": "U", "NORAD_CAT_ID": 32355, "ELEMENT_SET_NO": 999, "REV_AT_EPOCH": 65112, "BSTAR": 0.0089710148, "MEAN_MOTION_DOT": 0.00476436, "MEAN_MOTION_DDOT": 0}, "tle": {"line1": "1 32355U 99025CYY 25354.62361287  .00476436  00000+0  89710-2 0  9993", "line2": "2 32355 100.3409 286.5316 0028321  70.0985  54.5123 15.46351214651120"}}, "geometry": {"type": "Point", "coordinates": [137.73232843754104, 70.34406056995935]}}, {"type": "Feature", "properties": {"norad_id": 32356, "name": "FENGYUN 1C DEB", "group": "fengyun-1c-debris", "lat": 63.64577901755734, "lon": 66.80149431390849, "alt_km": 916.7878576043913, "timestamp": "2025-12-20T22:39:10.911202+00:00", "meta": {"OBJECT_NAME": "FENGYUN 1C DEB", "OBJECT_ID": "1999-025CYZ", "EPOCH": "2025-12-18T13:39:38.979360", "MEAN_MOTION": 14.03420971, "ECCENTRICITY": 0.01257795, "INCLINATION": 102.496, "RA_OF_ASC_NODE": 216.9595, "ARG_OF_PERICENTER": 1.6093, "MEAN_ANOMALY": 358.5442, "EPHEMERIS_TYPE": 0, "CLASSIFICATION_TYPE": "U", "NORAD_CAT_ID": 32356, "ELEMENT_SET_NO": 999, "REV_AT_EPOCH": 68469, "BSTAR": 0.0018654991, "MEAN_MOTION_DOT": 3.058e-05, "MEAN_MOTION_DDOT": 0}, "tle": {"line1": "1 32356U 99025CYZ 25352.56920115  .00003058  00000+0  18655-2 0  9992", "line2": "2 32356 102.4960 216.9595 0125779   1.6093 358.5442 14.03420971684695"}}, "geometry": {"type": "Point", "coordinates": [66.80149431390849, 63.64577901755734]}}, {"type": "Feature", "properties": {"norad_id": 32357, "name": "FENGYUN 1C DEB", "group": "fengyun-1c-debris", "lat": -0.9851919477705934, "lon": 33.80442541871425, "alt_km": 1358.2915255546131, "timestamp": "2025-12-20T22:39:10.911211+00:00", "meta": {"OBJECT_NAME": "FENGYUN 1C DEB", "OBJECT_ID": "1999-025CZA", "EPOCH": "2025-12-13T21:20:47.666112", "MEAN_MOTION": 13.68708108, "ECCENTRICITY": 0.04907347, "INCLINATION": 98.8577, "RA_OF_ASC_NODE": 27.1403, "ARG_OF_PERICENTER": 184.5127, "MEAN_ANOMALY": 353.61, "EPHEMERIS_TYPE": 0, "CLASSIFICATION_TYPE": "U", "NORAD_CAT_ID": 32357, "ELEMENT_SET_NO": 999, "REV_AT_EPOCH": 66803, "BSTAR": 0.0036548407, "MEAN_MOTION_DOT": 7.308e-05, "MEAN_MOTION_DDOT": 0}, "tle": {"line1": "1 32357U 99025CZA 25347.88944058  .00007308  00000+0  36548-2 0  9997", "line2": "2 32357  98.8577  27.1403 0490734 184.5127 353.6100 13.68708108668031"}}, "geometry": {"type": "Point", "coordinates": [33.80442541871425, -0.9851919477705934]}}, {"type": "Feature", "properties": {"norad_id": 32360, "name": "FENGYUN 1C DEB", "group": "fengyun-1c-debris", "lat": 57.944270377531176, "lon": 158.09699633106806, "alt_km": 1009.9542679513379, "timestamp": "2025-12-20T22:39:10.911232+00:00", "meta": {"OBJECT_NAME": "FENGYUN 1C DEB", "OBJECT_ID": "1999-025CZD", "EPOCH": "2025-12-18T05:06:51.185952", "MEAN_MOTION": 13.98351056, "ECCENTRICITY": 0.02332442, "INCLINATION": 98.1017, "RA_OF_ASC_NODE": 168.829, "ARG_OF_PERICENTER": 292.5211, "MEAN_ANOMALY": 65.1418, "EPHEMERIS_TYPE": 0, "CLASSIFICATION_TYPE": "U", "NORAD_CAT_ID": 32360, "ELEMENT_SET_NO": 999, "REV_AT_EPOCH": 64893, "BSTAR": 0.0024572046, "MEAN_MOTION_DOT": 4.391e-05, "MEAN_MOTION_DDOT": 0}, "tle": {"line1": "1 32360U 99025CZD 25352.21309243  .00004391  00000+0  24572-2 0  9998", "line2": "2 32360  98.1017 168.8290 0233244 292.5211  65.1418 13.98351056648932"}}, "geometry": {"type": "Point", "coordinates": [158.09699633106806, 57.944270377531176]}}, {"type": "Feature", "properties": {"norad_id": 32361, "name": "FENGYUN 1C DEB", "group": "fengyun-1c-debris", "lat": -2.4635901405952794, "lon": -126.07035098828483, "alt_km": 756.0871391352157, "timestamp": "2025-12-20T22:39:10.911241+00:00", "meta": {"OBJECT_NAME": "FENGYUN 1C DEB", "OBJECT_ID": "1999-025CZE", "EPOCH": "2025-12-18T15:12:27.802368", "MEAN_MOTION": 14.51127075, "ECCENTRICITY": 0.00455952, "INCLINATION": 98.8607, "RA_OF_ASC_NODE": 51.8817, "ARG_OF_PERICENTER": 26.3959, "MEAN_ANOMALY": 333.9543, "EPHEMERIS_TYPE": 0, "CLASSIFICATION_TYPE": "U", "NORAD_CAT_ID": 32361, "ELEMENT_SET_NO": 999, "REV_AT_EPOCH": 96430, "BSTAR": 0.0014332928, "MEAN_MOTION_DOT": 5.714e-05, "MEAN_MOTION_DDOT": 0}, "tle": {"line1": "1 32361U 99025CZE 25352.63365512  .00005714  00000+0  14333-2 0  9990", "line2": "2 32361  98.8607  51.8817 0045595  26.3959 333.9543 14.51127075964302"}}, "geometry": {"type": "Point", "coordinates": [-126.07035098828483, -2.4635901405952794]}}, {"type": "Feature", "properties": {"norad_id": 32362, "name": "FENGYUN 1C DEB", "group": "fengyun-1c-debris", "lat": 0.45673458973623865, "lon": 146.32898508959678, "alt_km": 996.7803595976611, "timestamp": "2025-12-20T22:39:10.911250+00:00", "meta": {"OBJECT_NAME": "FENGYUN 1C DEB", "OBJECT_ID": "1999-025CZF", "EPOCH": "2025-12-19T21:07:20.730720", "MEAN_MOTION": 13.65225462, "ECCENTRICITY": 0.0273699, "INCLINATION": 99.8444, "RA_OF_ASC_NODE": 325.1697, "ARG_OF_PERICENTER": 267.2396, "MEAN_ANOMALY": 89.7395, "EPHEMERIS_TYPE": 0, "CLASSIFICATION_TYPE": "U", "NORAD_CAT_ID": 32362, "ELEMENT_SET_NO": 999, "REV_AT_EPOCH": 91227, "BSTAR": 0.001706, "MEAN_MOTION_DOT": 1.741e-05, "MEAN_MOTION_DDOT": 0}, "tle": {"line1": "1 32362U 99025CZF 25353.88010105  .00001741  00000+0  17060-2 0  9990", "line2": "2 32362  99.8444 325.1697 0273699 267.2396  89.7395 13.65225462912278"}}, "geometry": {"type": "Point", "coordinates": [146.32898508959678, 0.45673458973623865]}}, {"type": "Feature", "properties": {"norad_id": 32363, "name": "FENGYUN 1C DEB", "group": "fengyun-1c-debris", "lat": -76.21710270533602, "lon": -9.15301690660374, "alt_km": 468.79134905160845, "timestamp": "2025-12-20T22:39:10.911260+00:00", "meta": {"OBJECT_NAME": "FENGYUN 1C DEB", "OBJECT_ID": "1999-025CZG", "EPOCH": "2025-12-17T08:09:57.409920", "MEAN_MOTION": 15.48534366, "ECCENTRICITY": 0.00638192, "INCLINATION": 98.3303, "RA_OF_ASC_NODE": 310.0138, "ARG_OF_PERICENTER": 125.2276, "MEAN_ANOMALY": 235.4969, "EPHEMERIS_TYPE": 0, "CLASSIFICATION_TYPE": "U", "NORAD_CAT_ID": 32363, "ELEMENT_SET_NO": 999, "REV_AT_EPOCH": 96879, "BSTAR": 0.0013930297, "MEAN_MOTION_DOT": 0.00081044, "MEAN_MOTION_DDOT": 0}, "tle": {"line1": "1 32363U 99025CZG 25351.34024780  .00081044  00000+0  13930-2 0  9990", "line2": "2 32363  98.3303 310.0138 0063819 125.2276 235.4969 15.48534366968795"}}, "geometry": {"type": "Point", "coordinates": [-9.15301690660374, -76.21710270533602]}}]}